{"type": "FeatureCollection", "features": [ {"type": "Feature", "properties": {"norad_id": 34637, "name": "COSMOS 2251 DEB", "group": "cosmos-2251-debris", "lat": -29.257589195820998, "lon": -93.61605525373635, "alt_km": 683.9840046362251, "timestamp": "2025-12-25T07:41:10.118190+00:00", "meta": {"OBJECT_NAME": "COSMOS 2251 DEB", "OBJECT_ID": "1993-036XJ", "EPOCH": "2025-12-24T16:37:42.451680", "MEAN_MOTION": 14.60194617, "ECCENTRICITY": 0.00488497, "INCLINATION": 74.0492, "RA_OF_ASC_NODE": 78.3604, "ARG_OF_PERICENTER": 145.6397, "MEAN_ANOMALY": 7.5755, "EPHEMERIS_TYPE": 0, "CLASSIFICATION_TYPE": "U", "NORAD_CAT_ID": 34637, "ELEMENT_SET_NO": 999, "REV_AT_EPOCH": 88701, "BSTAR": 0.00083895916, "MEAN_MOTION_DOT": 4.084e-05, "MEAN_MOTION_DDOT": 0}, "tle": {"line1": "1 34637U 93036XJ  25358.69285245  .00004084  00000+0  83896-3 0  9990", "line2": "2 34637  74.0492  78.3604 0048849 145.6397   7.5755 14.60194617887019"}}, "geometry": {"type": "Point", "coordinates": [-93.61605525373635, -29.257589195820998]}}, {"type": "Feature", "properties": {"norad_id": 34641, "name": "COSMOS 2251 DEB", "group": "cosmos-2251-debris", "lat": -13.863151358987427, "lon": -118.2361888828179, "alt_km": 732.8004911328908, "timestamp": "2025-12-25T07:41:10.118200+00:00", "meta": {"OBJECT_NAME": "COSMOS 2251 DEB", "OBJECT_ID": "1993-036XN", "EPOCH": "2025-12-24T21:23:49.255584", "MEAN_MOTION": 14.52078649, "ECCENTRICITY": 0.00190825, "INCLINATION": 73.8378, "RA_OF_ASC_NODE": 58.4768, "ARG_OF_PERICENTER": 331.089, "MEAN_ANOMALY": 143.2006, "EPHEMERIS_TYPE": 0, "CLASSIFICATION_TYPE": "U", "NORAD_CAT_ID": 34641, "ELEMENT_SET_NO": 999, "REV_AT_EPOCH": 88432, "BSTAR": 0.00072237823, "MEAN_MOTION_DOT": 2.901e-05, "MEAN_MOTION_DDOT": 0}, "tle": {"line1": "1 34641U 93036XN  25358.89154231  .00002901  00000+0  72238-3 0  9991", "line2": "2 34641  73.8378  58.4768 0019082 331.0890 143.2006 14.52078649884325"}}, "geometry": {"type": "Point", "coordinates": [-118.2361888828179, -13.863151358987427]}}, {"type": "Feature", "properties": {"norad_id": 34642, "name": "COSMOS 2251 DEB", "group": "cosmos-2251-debris", "lat": 33.679939008893875, "lon": -30.96979166393274, "alt_km": 916.6312722039283, "timestamp": "2025-12-25T07:41:10.118210+00:00", "meta": {"OBJECT_NAME": "COSMOS 2251 DEB", "OBJECT_ID": "1993-036XP", "EPOCH": "2025-12-24T08:05:16.562400", "MEAN_MOTION": 13.99004253, "ECCENTRICITY": 0.0206477, "INCLINATION": 74.0043, "RA_OF_ASC_NODE": 319.7125, "ARG_OF_PERICENTER": 136.7937, "MEAN_ANOMALY": 350.6828, "EPHEMERIS_TYPE": 0, "CLASSIFICATION_TYPE": "U", "NORAD_CAT_ID": 34642, "ELEMENT_SET_NO": 999, "REV_AT_EPOCH": 85455, "BSTAR": 0.00081021111, "MEAN_MOTION_DOT": 1.383e-05, "MEAN_MOTION_DDOT": 0}, "tle": {"line1": "1 34642U 93036XP  25358.33699725  .00001383  00000+0  81021-3 0  9996", "line2": "2 34642  74.0043 319.7125 0206477 136.7937 350.6828 13.99004253854554"}}, "geometry": {"type": "Point", "coordinates": [-30.96979166393274, 33.679939008893875]}}, {"type": "Feature", "properties": {"norad_id": 34671, "name": "COSMOS 2251 DEB", "group": "cosmos-2251-debris", "lat": -69.3559704435617, "lon": -20.5088410169061, "alt_km": 674.0069045267246, "timestamp": "2025-12-25T07:41:10.118220+00:00", "meta": {"OBJECT_NAME": "COSMOS 2251 DEB", "OBJECT_ID": "1993-036XR", "EPOCH": "2025-12-24T07:45:05.041728", "MEAN_MOTION": 14.67129194, "ECCENTRICITY": 0.00105725, "INCLINATION": 74.0275, "RA_OF_ASC_NODE": 111.9321, "ARG_OF_PERICENTER": 193.4023, "MEAN_ANOMALY": 198.0562, "EPHEMERIS_TYPE": 0, "CLASSIFICATION_TYPE": "U", "NORAD_CAT_ID": 34671, "ELEMENT_SET_NO": 999, "REV_AT_EPOCH": 88467, "BSTAR": 0.0017522099, "MEAN_MOTION_DOT": 9.84e-05, "MEAN_MOTION_DDOT": 0}, "tle": {"line1": "1 34671U 93036XR  25358.32297502  .00009840  00000+0  17522-2 0  9994", "line2": "2 34671  74.0275 111.9321 0010572 193.4023 198.0562 14.67129194884671"}}, "geometry": {"type": "Point", "coordinates": [-20.5088410169061, -69.3559704435617]}}, {"type": "Feature", "properties": {"norad_id": 34672, "name": "COSMOS 2251 DEB", "group": "cosmos-2251-debris", "lat": 46.83106658371168, "lon": 84.70708867569849, "alt_km": 778.9150522112013, "timestamp": "2025-12-25T07:41:10.118230+00:00", "meta": {"OBJECT_NAME": "COSMOS 2251 DEB", "OBJECT_ID": "1993-036XS", "EPOCH": "2025-12-23T01:39:52.431840", "MEAN_MOTION": 14.36424251, "ECCENTRICITY": 0.00243004, "INCLINATION": 74.0343, "RA_OF_ASC_NODE": 286.6106, "ARG_OF_PERICENTER": 356.389, "MEAN_ANOMALY": 18.9966, "EPHEMERIS_TYPE": 0, "CLASSIFICATION_TYPE": "U", "NORAD_CAT_ID": 34672, "ELEMENT_SET_NO": 999, "REV_AT_EPOCH": 65326, "BSTAR": 0.00025150328, "MEAN_MOTION_DOT": 7.13e-06, "MEAN_MOTION_DDOT": 0}, "tle": {"line1": "1 34672U 93036XS  25357.06935685  .00000713  00000+0  25150-3 0  9993", "line2": "2 34672  74.0343 286.6106 0024300 356.3890  18.9966 14.36424251653260"}}, "geometry": {"type": "Point", "coordinates": [84.70708867569849, 46.83106658371168]}}, {"type": "Feature", "properties": {"norad_id": 34678, "name": "COSMOS 2251 DEB", "group": "cosmos-2251-debris", "lat": 24.730075905303238, "lon": -9.604425570455724, "alt_km": 772.6809656738051, "timestamp": "2025-12-25T07:41:10.118241+00:00", "meta": {"OBJECT_NAME": "COSMOS 2251 DEB", "OBJECT_ID": "1993-036XY", "EPOCH": "2025-12-24T17:16:16.188384", "MEAN_MOTION": 14.30067072, "ECCENTRICITY": 0.00247909, "INCLINATION": 74.0378, "RA_OF_ASC_NODE": 343.9119, "ARG_OF_PERICENTER": 29.3456, "MEAN_ANOMALY": 145.6372, "EPHEMERIS_TYPE": 0, "CLASSIFICATION_TYPE": "U", "NORAD_CAT_ID": 34678, "ELEMENT_SET_NO": 999, "REV_AT_EPOCH": 87550, "BSTAR": 3.5294144e-05, "MEAN_MOTION_DOT": 6.6e-07, "MEAN_MOTION_DDOT": 0}, "tle": {"line1": "1 34678U 93036XY  25358.71963181  .00000066  00000+0  35294-4 0  9996", "line2": "2 34678  74.0378 343.9119 0024790  29.3456 145.6372 14.30067072875503"}}, "geometry": {"type": "Point", "coordinates": [-9.604425570455724, 24.730075905303238]}}, {"type": "Feature", "properties": {"norad_id": 34680, "name": "COSMOS 2251 DEB", "group": "cosmos-2251-debris", "lat": -67.20476985236905, "lon": -31.258335044241853, "alt_km": 694.5704009245319, "timestamp": "2025-12-25T07:41:10.118251+00:00", "meta": {"OBJECT_NAME": "COSMOS 2251 DEB", "OBJECT_ID": "1993-036YA", "EPOCH": "2025-12-23T15:21:33.153120", "MEAN_MOTION": 14.60731514, "ECCENTRICITY": 0.00063275, "INCLINATION": 74.0441, "RA_OF_ASC_NODE": 109.0451, "ARG_OF_PERICENTER": 210.5791, "MEAN_ANOMALY": 210.4022, "EPHEMERIS_TYPE": 0, "CLASSIFICATION_TYPE": "U", "NORAD_CAT_ID": 34680, "ELEMENT_SET_NO": 999, "REV_AT_EPOCH": 88487, "BSTAR": 0.0011410093, "MEAN_MOTION_DOT": 5.54e-05, "MEAN_MOTION_DDOT": 0}, "tle": {"line1": "1 34680U 93036YA  25357.63996705  .00005540  00000+0  11410-2 0  9991", "line2": "2 34680  74.0441 109.0451 0006327 210.5791 210.4022 14.60731514884874"}}, "geometry": {"type": "Point", "coordinates": [-31.258335044241853, -67.20476985236905]}}, {"type": "Feature", "properties": {"norad_id": 34681, "name": "COSMOS 2251 DEB", "group": "cosmos-2251-debris", "lat": 62.93201225552345, "lon": -60.472903365142926, "alt_km": 617.1540958208179, "timestamp": "2025-12-25T07:41:10.118261+00:00", "meta": {"OBJECT_NAME": "COSMOS 2251 DEB", "OBJECT_ID": "1993-036YB", "EPOCH": "2025-12-24T18:42:25.058016", "MEAN_MOTION": 14.83480018, "ECCENTRICITY": 0.00256734, "INCLINATION": 74.062, "RA_OF_ASC_NODE": 266.5949, "ARG_OF_PERICENTER": 321.7388, "MEAN_ANOMALY": 98.9064, "EPHEMERIS_TYPE": 0, "CLASSIFICATION_TYPE": "U", "NORAD_CAT_ID": 34681, "ELEMENT_SET_NO": 999, "REV_AT_EPOCH": 89449, "BSTAR": 0.00141476, "MEAN_MOTION_DOT": 0.00011685, "MEAN_MOTION_DDOT": 0}, "tle": {"line1": "1 34681U 93036YB  25358.77945669  .00011685  00000+0  14148-2 0  9999", "line2": "2 34681  74.0620 266.5949 0025673 321.7388  98.9064 14.83480018894496"}}, "geometry": {"type": "Point", "coordinates": [-60.472903365142926, 62.93201225552345]}}, {"type": "Feature", "properties": {"norad_id": 34682, "name": "COSMOS 2251 DEB", "group": "cosmos-2251-debris", "lat": 22.30956550697618, "lon": -127.71574222011601, "alt_km": 685.4266203499528, "timestamp": "2025-12-25T07:41:10.118271+00:00", "meta": {"OBJECT_NAME": "COSMOS 2251 DEB", "OBJECT_ID": "1993-036YC", "EPOCH": "2025-12-24T15:14:55.275072", "MEAN_MOTION": 14.58972919, "ECCENTRICITY": 0.00177035, "INCLINATION": 74.0393, "RA_OF_ASC_NODE": 60.3321, "ARG_OF_PERICENTER": 192.0267, "MEAN_ANOMALY": 328.9286, "EPHEMERIS_TYPE": 0, "CLASSIFICATION_TYPE": "U", "NORAD_CAT_ID": 34682, "ELEMENT_SET_NO": 999, "REV_AT_EPOCH": 88859, "BSTAR": 0.00071253845, "MEAN_MOTION_DOT": 3.323e-05, "MEAN_MOTION_DDOT": 0}, "tle": {"line1": "1 34682U 93036YC  25358.63536198  .00003323  00000+0  71254-3 0  9990", "line2": "2 34682  74.0393  60.3321 0017703 192.0267 328.9286 14.58972919888592"}}, "geometry": {"type": "Point", "coordinates": [-127.71574222011601, 22.30956550697618]}}, {"type": "Feature", "properties": {"norad_id": 34683, "name": "COSMOS 2251 DEB", "group": "cosmos-2251-debris", "lat": -23.142227626063537, "lon": -104.89257433986882, "alt_km": 671.9229029506887, "timestamp": "2025-12-25T07:41:10.118281+00:00", "meta": {"OBJECT_NAME": "COSMOS 2251 DEB", "OBJECT_ID": "1993-036YD", "EPOCH": "2025-12-24T16:44:03.936192", "MEAN_MOTION": 14.64633572, "ECCENTRICITY": 0.00173569, "INCLINATION": 74.0289, "RA_OF_ASC_NODE": 69.2741, "ARG_OF_PERICENTER": 183.9932, "MEAN_ANOMALY": 336.4823, "EPHEMERIS_TYPE": 0, "CLASSIFICATION_TYPE": "U", "NORAD_CAT_ID": 34683, "ELEMENT_SET_NO": 999, "REV_AT_EPOCH": 88523, "BSTAR": 0.0011998221, "MEAN_MOTION_DOT": 6.366e-05, "MEAN_MOTION_DDOT": 0}, "tle": {"line1": "1 34683U 93036YD  25358.69726778  .00006366  00000+0  11998-2 0  9990", "line2": "2 34683  74.0289  69.2741 0017356 183.9932 336.4823 14.64633572885238"}}, "geometry": {"type": "Point", "coordinates": [-104.89257433986882, -23.142227626063537]}}]}